{"type": "FeatureCollection", "features": [ {"type": "Feature", "properties": {"norad_id": 66726, "name": "FLOCK 4H-23", "group": "last-30-days", "lat": 64.64783827105316, "lon": 51.376432379615046, "alt_km": 510.2729756728995, "timestamp": "2025-12-21T18:54:57.223018+00:00", "meta": {"OBJECT_NAME": "FLOCK 4H-23", "OBJECT_ID": "2025-276BN", "EPOCH": "2025-12-21T12:17:44.822112", "MEAN_MOTION": 15.17205945, "ECCENTRICITY": 0.00033079, "INCLINATION": 97.4451, "RA_OF_ASC_NODE": 67.1266, "ARG_OF_PERICENTER": 250.7614, "MEAN_ANOMALY": 109.3262, "EPHEMERIS_TYPE": 0, "CLASSIFICATION_TYPE": "U", "NORAD_CAT_ID": 66726, "ELEMENT_SET_NO": 999, "REV_AT_EPOCH": 345, "BSTAR": 0.00032339663, "MEAN_MOTION_DOT": 6.363e-05, "MEAN_MOTION_DDOT": 0}, "tle": {"line1": "1 66726U 25276BN  25355.51232433  .00006363  00000+0  32340-3 0  9994", "line2": "2 66726  97.4451  67.1266 0003307 250.7614 109.3262 15.17205945  3459"}}, "geometry": {"type": "Point", "coordinates": [51.376432379615046, 64.64783827105316]}}, {"type": "Feature", "properties": {"norad_id": 66727, "name": "FLOCK 4H-24", "group": "last-30-days", "lat": 72.80457109088246, "lon": 42.408328653139364, "alt_km": 508.83007505793194, "timestamp": "2025-12-21T18:54:57.223028+00:00", "meta": {"OBJECT_NAME": "FLOCK 4H-24", "OBJECT_ID": "2025-276BP", "EPOCH": "2025-12-21T10:40:30.326880", "MEAN_MOTION": 15.17311145, "ECCENTRICITY": 0.00027621, "INCLINATION": 97.4447, "RA_OF_ASC_NODE": 67.0661, "ARG_OF_PERICENTER": 269.9246, "MEAN_ANOMALY": 90.1671, "EPHEMERIS_TYPE": 0, "CLASSIFICATION_TYPE": "U", "NORAD_CAT_ID": 66727, "ELEMENT_SET_NO": 999, "REV_AT_EPOCH": 344, "BSTAR": 0.0003438576, "MEAN_MOTION_DOT": 6.79e-05, "MEAN_MOTION_DDOT": 0}, "tle": {"line1": "1 66727U 25276BP  25355.44479545  .00006790  00000+0  34386-3 0  9990", "line2": "2 66727  97.4447  67.0661 0002762 269.9246  90.1671 15.17311145  3440"}}, "geometry": {"type": "Point", "coordinates": [42.408328653139364, 72.80457109088246]}}, {"type": "Feature", "properties": {"norad_id": 66728, "name": "FLOCK 4H-25", "group": "last-30-days", "lat": 31.574260119191333, "lon": -107.97380225642071, "alt_km": 508.5314617699969, "timestamp": "2025-12-21T18:54:57.223040+00:00", "meta": {"OBJECT_NAME": "FLOCK 4H-25", "OBJECT_ID": "2025-276BQ", "EPOCH": "2025-12-21T11:56:19.783680", "MEAN_MOTION": 15.18204601, "ECCENTRICITY": 0.00015441, "INCLINATION": 97.4404, "RA_OF_ASC_NODE": 67.1335, "ARG_OF_PERICENTER": 129.5537, "MEAN_ANOMALY": 230.5833, "EPHEMERIS_TYPE": 0, "CLASSIFICATION_TYPE": "U", "NORAD_CAT_ID": 66728, "ELEMENT_SET_NO": 999, "REV_AT_EPOCH": 273, "BSTAR": 0.00074115393, "MEAN_MOTION_DOT": 0.00015111, "MEAN_MOTION_DDOT": 0}, "tle": {"line1": "1 66728U 25276BQ  25355.49745120  .00015111  00000+0  74115-3 0  9992", "line2": "2 66728  97.4404  67.1335 0001544 129.5537 230.5833 15.18204601  2734"}}, "geometry": {"type": "Point", "coordinates": [-107.97380225642071, 31.574260119191333]}}, {"type": "Feature", "properties": {"norad_id": 66729, "name": "FLOCK 4H-26", "group": "last-30-days", "lat": 57.072995638972294, "lon": 55.738209164537814, "alt_km": 511.3108153035182, "timestamp": "2025-12-21T18:54:57.223050+00:00", "meta": {"OBJECT_NAME": "FLOCK 4H-26", "OBJECT_ID": "2025-276BR", "EPOCH": "2025-12-21T12:19:48.138240", "MEAN_MOTION": 15.1713599, "ECCENTRICITY": 0.00035911, "INCLINATION": 97.44, "RA_OF_ASC_NODE": 67.1104, "ARG_OF_PERICENTER": 262.8676, "MEAN_ANOMALY": 97.2149, "EPHEMERIS_TYPE": 0, "CLASSIFICATION_TYPE": "U", "NORAD_CAT_ID": 66729, "ELEMENT_SET_NO": 999, "REV_AT_EPOCH": 345, "BSTAR": 0.00033393873, "MEAN_MOTION_DOT": 6.56e-05, "MEAN_MOTION_DDOT": 0}, "tle": {"line1": "1 66729U 25276BR  25355.51375160  .00006560  00000+0  33394-3 0  9991", "line2": "2 66729  97.4400  67.1104 0003591 262.8676  97.2149 15.17135990  3455"}}, "geometry": {"type": "Point", "coordinates": [55.738209164537814, 57.072995638972294]}}, {"type": "Feature", "properties": {"norad_id": 66730, "name": "FLOCK 4H-27", "group": "last-30-days", "lat": 42.60156972993466, "lon": -105.69294329612545, "alt_km": 507.4589854511323, "timestamp": "2025-12-21T18:54:57.223062+00:00", "meta": {"OBJECT_NAME": "FLOCK 4H-27", "OBJECT_ID": "2025-276BS", "EPOCH": "2025-12-21T10:24:18.782208", "MEAN_MOTION": 15.1806278, "ECCENTRICITY": 0.00011455, "INCLINATION": 97.4382, "RA_OF_ASC_NODE": 67.0582, "ARG_OF_PERICENTER": 129.5514, "MEAN_ANOMALY": 230.5821, "EPHEMERIS_TYPE": 0, "CLASSIFICATION_TYPE": "U", "NORAD_CAT_ID": 66730, "ELEMENT_SET_NO": 999, "REV_AT_EPOCH": 344, "BSTAR": 0.00038881886, "MEAN_MOTION_DOT": 7.856e-05, "MEAN_MOTION_DDOT": 0}, "tle": {"line1": "1 66730U 25276BS  25355.43355072  .00007856  00000+0  38882-3 0  9990", "line2": "2 66730  97.4382  67.0582 0001145 129.5514 230.5821 15.18062780  3443"}}, "geometry": {"type": "Point", "coordinates": [-105.69294329612545, 42.60156972993466]}}, {"type": "Feature", "properties": {"norad_id": 66731, "name": "FLOCK 4H-28", "group": "last-30-days", "lat": 58.79159350054563, "lon": 54.92192590795868, "alt_km": 510.82216773738764, "timestamp": "2025-12-21T18:54:57.223071+00:00", "meta": {"OBJECT_NAME": "FLOCK 4H-28", "OBJECT_ID": "2025-276BT", "EPOCH": "2025-12-21T10:44:21.388128", "MEAN_MOTION": 15.17121778, "ECCENTRICITY": 0.00032093, "INCLINATION": 97.439, "RA_OF_ASC_NODE": 67.0426, "ARG_OF_PERICENTER": 269.706, "MEAN_ANOMALY": 90.3806, "EPHEMERIS_TYPE": 0, "CLASSIFICATION_TYPE": "U", "NORAD_CAT_ID": 66731, "ELEMENT_SET_NO": 999, "REV_AT_EPOCH": 344, "BSTAR": 0.00033855829, "MEAN_MOTION_DOT": 6.648e-05, "MEAN_MOTION_DDOT": 0}, "tle": {"line1": "1 66731U 25276BT  25355.44746977  .00006648  00000+0  33856-3 0  9994", "line2": "2 66731  97.4390  67.0426 0003209 269.7060  90.3806 15.17121778  3443"}}, "geometry": {"type": "Point", "coordinates": [54.92192590795868, 58.79159350054563]}}, {"type": "Feature", "properties": {"norad_id": 66732, "name": "FLOCK 4H-29", "group": "last-30-days", "lat": 70.15992434928296, "lon": 46.15880034465928, "alt_km": 508.221408016414, "timestamp": "2025-12-21T18:54:57.223081+00:00", "meta": {"OBJECT_NAME": "FLOCK 4H-29", "OBJECT_ID": "2025-276BU", "EPOCH": "2025-12-21T12:16:15.358368", "MEAN_MOTION": 15.17382579, "ECCENTRICITY": 0.00025384, "INCLINATION": 97.4354, "RA_OF_ASC_NODE": 67.1071, "ARG_OF_PERICENTER": 213.9664, "MEAN_ANOMALY": 146.1407, "EPHEMERIS_TYPE": 0, "CLASSIFICATION_TYPE": "U", "NORAD_CAT_ID": 66732, "ELEMENT_SET_NO": 999, "REV_AT_EPOCH": 345, "BSTAR": 0.0041159892, "MEAN_MOTION_DOT": 0.00083033, "MEAN_MOTION_DDOT": 0}, "tle": {"line1": "1 66732U 25276BU  25355.51128887  .00083033  00000+0  41160-2 0  9996", "line2": "2 66732  97.4354  67.1071 0002538 213.9664 146.1407 15.17382579  3452"}}, "geometry": {"type": "Point", "coordinates": [46.15880034465928, 70.15992434928296]}}, {"type": "Feature", "properties": {"norad_id": 66733, "name": "FLOCK 4H-30", "group": "last-30-days", "lat": 71.75081421142895, "lon": 44.282266533113784, "alt_km": 508.631039101866, "timestamp": "2025-12-21T18:54:57.223091+00:00", "meta": {"OBJECT_NAME": "FLOCK 4H-30", "OBJECT_ID": "2025-276BV", "EPOCH": "2025-12-21T04:21:52.000704", "MEAN_MOTION": 15.187439, "ECCENTRICITY": 0.0012795, "INCLINATION": 97.3836, "RA_OF_ASC_NODE": 66.8483, "ARG_OF_PERICENTER": 220.041, "MEAN_ANOMALY": 139.9882, "EPHEMERIS_TYPE": 0, "CLASSIFICATION_TYPE": "U", "NORAD_CAT_ID": 66733, "ELEMENT_SET_NO": 999, "REV_AT_EPOCH": 340, "BSTAR": 0.017442, "MEAN_MOTION_DOT": 0.00381895, "MEAN_MOTION_DDOT": 0}, "tle": {"line1": "1 66733U 25276BV  25355.18185186  .00381895  00000+0  17442-1 0  9997", "line2": "2 66733  97.3836  66.8483 0012795 220.0410 139.9882 15.18743900  3406"}}, "geometry": {"type": "Point", "coordinates": [44.282266533113784, 71.75081421142895]}}, {"type": "Feature", "properties": {"norad_id": 66734, "name": "FLOCK 4H-31", "group": "last-30-days", "lat": 64.98893281065973, "lon": 51.11444282763832, "alt_km": 509.397057125364, "timestamp": "2025-12-21T18:54:57.223101+00:00", "meta": {"OBJECT_NAME": "FLOCK 4H-31", "OBJECT_ID": "2025-276BW", "EPOCH": "2025-12-21T10:42:41.150304", "MEAN_MOTION": 15.17198452, "ECCENTRICITY": 0.00026071, "INCLINATION": 97.4378, "RA_OF_ASC_NODE": 67.04, "ARG_OF_PERICENTER": 284.9602, "MEAN_ANOMALY": 75.1343, "EPHEMERIS_TYPE": 0, "CLASSIFICATION_TYPE": "U", "NORAD_CAT_ID": 66734, "ELEMENT_SET_NO": 999, "REV_AT_EPOCH": 344, "BSTAR": 0.00060947673, "MEAN_MOTION_DOT": 0.00012056, "MEAN_MOTION_DDOT": 0}, "tle": {"line1": "1 66734U 25276BW  25355.44630961  .00012056  00000+0  60948-3 0  9994", "line2": "2 66734  97.4378  67.0400 0002607 284.9602  75.1343 15.17198452  3446"}}, "geometry": {"type": "Point", "coordinates": [51.11444282763832, 64.98893281065973]}}, {"type": "Feature", "properties": {"norad_id": 66735, "name": "FLOCK 4H-32", "group": "last-30-days", "lat": 62.69082501691816, "lon": 52.725917270279474, "alt_km": 510.43429689968616, "timestamp": "2025-12-21T18:54:57.223111+00:00", "meta": {"OBJECT_NAME": "FLOCK 4H-32", "OBJECT_ID": "2025-276BX", "EPOCH": "2025-12-21T10:43:18.978816", "MEAN_MOTION": 15.17204683, "ECCENTRICITY": 0.00034896, "INCLINATION": 97.4434, "RA_OF_ASC_NODE": 67.0576, "ARG_OF_PERICENTER": 266.5351, "MEAN_ANOMALY": 93.5484, "EPHEMERIS_TYPE": 0, "CLASSIFICATION_TYPE": "U", "NORAD_CAT_ID": 66735, "ELEMENT_SET_NO": 999, "REV_AT_EPOCH": 344, "BSTAR": 0.00036111235, "MEAN_MOTION_DOT": 7.113e-05, "MEAN_MOTION_DDOT": 0}, "tle": {"line1": "1 66735U 25276BX  25355.44674744  .00007113  00000+0  36111-3 0  9995", "line2": "2 66735  97.4434  67.0576 0003489 266.5351  93.5484 15.17204683  3444"}}, "geometry": {"type": "Point", "coordinates": [52.725917270279474, 62.69082501691816]}}]}